SL-14 R/B               
1 16496U 86006B   26104.59244787  .00000508  00000+0  50916-4 0  9992
2 16496  82.5280 225.9446 0077209 152.7146 207.8161 14.86878394154548
COSMOS 1743             
1 16719U 86034A   26104.81675406  .00027862  00000+0  32065-3 0  9998
2 16719  82.5309  35.8241 0006947 128.9442 231.2436 15.61806443185881
SL-14 R/B               
1 16792U 86046B   26104.84184664  .00000280  00000+0  29270-4 0  9996
2 16792  82.4833  46.0198 0024631 107.3317 253.0597 14.85626957131774
SL-14 R/B               
1 16882U 86055B   26104.72229328  .00000267  00000+0  27933-4 0  9999
2 16882  82.5172  92.7937 0018061 208.7276 324.1199 14.85675589124719
AJISAI (EGS)            
1 16908U 86061A   26104.85727198 -.00000088  00000+0  68295-4 0  9995
2 16908  50.0116 342.1350 0011392  19.9868  65.7373 12.44515758472505
SL-14 R/B               
1 17567U 87024B   26104.86209293  .00000278  00000+0  28757-4 0  9998
2 17567  82.5281  58.7591 0019291 137.2247 223.0475 14.86167958 93502
COSMOS 1833             
1 17589U 87027A   26104.68001808 -.00000315  00000+0 -14254-3 0  9997
2 17589  70.9163 250.3661 0022604 159.6727 200.5299 14.13038763 15405
SL-16 R/B               
1 17590U 87027B   26104.61973977 -.00000243  00000+0 -96833-4 0  9991
2 17590  71.0035 200.7795 0003050  49.5723 310.5667 14.17169306 20433
SL-14 R/B               
1 17912U 87038B   26104.80822747  .00000251  00000+0  26253-4 0  9996
2 17912  82.4988 262.7708 0020323  48.4069 311.8884 14.85403436 84591
COSMOS 1844             
1 17973U 87041A   26104.88881315 -.00000103  00000+0 -28386-4 0  9998
2 17973  70.9002 317.8248 0032342 324.5667  35.3306 14.14564843  8702
SL-14 R/B               
1 18153U 87055B   26104.84609095  .00000241  00000+0  24920-4 0  9994
2 18153  82.4977 314.9532 0019168 252.9372 106.9744 14.85662695 75307
COSMOS 1867             
1 18187U 87060A   26104.62948094 -.00000057  00000+0  16208-4 0  9994
2 18187  65.0110 206.0530 0015172 280.5542  79.3833 14.31508633 25080
SL-14 R/B               
1 18749U 88001B   26104.70923787  .00000236  00000+0  24338-4 0  9996
2 18749  82.5141 161.4921 0019496 117.2866 243.0338 14.85564618 47378
COSMOS 1933             
1 18958U 88020A   26104.64578535  .00002666  00000+0  12841-3 0  9993
2 18958  82.5149 215.3303 0005432  81.6745 278.5105 15.18328460 55684
SL-3 R/B                
1 19046U 88032B   26104.87137128  .00002767  00000+0  12935-3 0  9995
2 19046  97.5226  88.0163 0027601 106.7687 253.6580 15.20305274 57606
SL-16 R/B               
1 19120U 88039B   26104.84573233  .00000029  00000+0  36610-4 0  9999
2 19120  71.0169 352.0977 0024020 283.0866  76.7578 14.19622647963519
COSMOS 1953             
1 19210U 88050A   26104.75524866  .00003852  00000+0  13507-3 0  9996
2 19210  82.5050 121.9527 0010739   7.8952 352.2455 15.29082029 43295
