[{"OBJECT_NAME":"SL-14 R/B","OBJECT_ID":"1986-006B","EPOCH":"2026-04-14T14:13:07.495968","MEAN_MOTION":14.86878394,"ECCENTRICITY":0.0077209,"INCLINATION":82.528,"RA_OF_ASC_NODE":225.9446,"ARG_OF_PERICENTER":152.7146,"MEAN_ANOMALY":207.8161,"EPHEMERIS_TYPE":0,"CLASSIFICATION_TYPE":"U","NORAD_CAT_ID":16496,"ELEMENT_SET_NO":999,"REV_AT_EPOCH":15454,"BSTAR":5.0916e-5,"MEAN_MOTION_DOT":5.08e-6,"MEAN_MOTION_DDOT":0},{"OBJECT_NAME":"COSMOS 1743","OBJECT_ID":"1986-034A","EPOCH":"2026-04-14T19:36:07.550784","MEAN_MOTION":15.61806443,"ECCENTRICITY":0.0006947,"INCLINATION":82.5309,"RA_OF_ASC_NODE":35.8241,"ARG_OF_PERICENTER":128.9442,"MEAN_ANOMALY":231.2436,"EPHEMERIS_TYPE":0,"CLASSIFICATION_TYPE":"U","NORAD_CAT_ID":16719,"ELEMENT_SET_NO":999,"REV_AT_EPOCH":18588,"BSTAR":0.00032065,"MEAN_MOTION_DOT":0.00027862,"MEAN_MOTION_DDOT":0},{"OBJECT_NAME":"SL-14 R/B","OBJECT_ID":"1986-046B","EPOCH":"2026-04-14T20:12:15.549696","MEAN_MOTION":14.85626957,"ECCENTRICITY":0.0024631,"INCLINATION":82.4833,"RA_OF_ASC_NODE":46.0198,"ARG_OF_PERICENTER":107.3317,"MEAN_ANOMALY":253.0597,"EPHEMERIS_TYPE":0,"CLASSIFICATION_TYPE":"U","NORAD_CAT_ID":16792,"ELEMENT_SET_NO":999,"REV_AT_EPOCH":13177,"BSTAR":2.927e-5,"MEAN_MOTION_DOT":2.8e-6,"MEAN_MOTION_DDOT":0},{"OBJECT_NAME":"SL-14 R/B","OBJECT_ID":"1986-055B","EPOCH":"2026-04-14T17:20:06.139392","MEAN_MOTION":14.85675589,"ECCENTRICITY":0.0018061,"INCLINATION":82.5172,"RA_OF_ASC_NODE":92.7937,"ARG_OF_PERICENTER":208.7276,"MEAN_ANOMALY":324.1199,"EPHEMERIS_TYPE":0,"CLASSIFICATION_TYPE":"U","NORAD_CAT_ID":16882,"ELEMENT_SET_NO":999,"REV_AT_EPOCH":12471,"BSTAR":2.7933e-5,"MEAN_MOTION_DOT":2.67e-6,"MEAN_MOTION_DDOT":0},{"OBJECT_NAME":"AJISAI (EGS)","OBJECT_ID":"1986-061A","EPOCH":"2026-04-14T20:34:28.299072","MEAN_MOTION":12.44515758,"ECCENTRICITY":0.0011392,"INCLINATION":50.0116,"RA_OF_ASC_NODE":342.135,"ARG_OF_PERICENTER":19.9868,"MEAN_ANOMALY":65.7373,"EPHEMERIS_TYPE":0,"CLASSIFICATION_TYPE":"U","NORAD_CAT_ID":16908,"ELEMENT_SET_NO":999,"REV_AT_EPOCH":47250,"BSTAR":6.8295e-5,"MEAN_MOTION_DOT":-8.8e-7,"MEAN_MOTION_DDOT":0},{"OBJECT_NAME":"SL-14 R/B","OBJECT_ID":"1987-024B","EPOCH":"2026-04-14T20:41:24.829152","MEAN_MOTION":14.86167958,"ECCENTRICITY":0.0019291,"INCLINATION":82.5281,"RA_OF_ASC_NODE":58.7591,"ARG_OF_PERICENTER":137.2247,"MEAN_ANOMALY":223.0475,"EPHEMERIS_TYPE":0,"CLASSIFICATION_TYPE":"U","NORAD_CAT_ID":17567,"ELEMENT_SET_NO":999,"REV_AT_EPOCH":9350,"BSTAR":2.8757e-5,"MEAN_MOTION_DOT":2.78e-6,"MEAN_MOTION_DDOT":0},{"OBJECT_NAME":"COSMOS 1833","OBJECT_ID":"1987-027A","EPOCH":"2026-04-14T16:19:13.562112","MEAN_MOTION":14.13038763,"ECCENTRICITY":0.0022604,"INCLINATION":70.9163,"RA_OF_ASC_NODE":250.3661,"ARG_OF_PERICENTER":159.6727,"MEAN_ANOMALY":200.5299,"EPHEMERIS_TYPE":0,"CLASSIFICATION_TYPE":"U","NORAD_CAT_ID":17589,"ELEMENT_SET_NO":999,"REV_AT_EPOCH":1540,"BSTAR":-0.00014254,"MEAN_MOTION_DOT":-3.15e-6,"MEAN_MOTION_DDOT":0},{"OBJECT_NAME":"SL-16 R/B","OBJECT_ID":"1987-027B","EPOCH":"2026-04-14T14:52:25.516128","MEAN_MOTION":14.17169306,"ECCENTRICITY":0.000305,"INCLINATION":71.0035,"RA_OF_ASC_NODE":200.7795,"ARG_OF_PERICENTER":49.5723,"MEAN_ANOMALY":310.5667,"EPHEMERIS_TYPE":0,"CLASSIFICATION_TYPE":"U","NORAD_CAT_ID":17590,"ELEMENT_SET_NO":999,"REV_AT_EPOCH":2043,"BSTAR":-9.6833e-5,"MEAN_MOTION_DOT":-2.43e-6,"MEAN_MOTION_DDOT":0},{"OBJECT_NAME":"SL-14 R/B","OBJECT_ID":"1987-038B","EPOCH":"2026-04-14T19:23:50.853408","MEAN_MOTION":14.85403436,"ECCENTRICITY":0.0020323,"INCLINATION":82.4988,"RA_OF_ASC_NODE":262.7708,"ARG_OF_PERICENTER":48.4069,"MEAN_ANOMALY":311.8884,"EPHEMERIS_TYPE":0,"CLASSIFICATION_TYPE":"U","NORAD_CAT_ID":17912,"ELEMENT_SET_NO":999,"REV_AT_EPOCH":8459,"BSTAR":2.6253e-5,"MEAN_MOTION_DOT":2.51e-6,"MEAN_MOTION_DDOT":0},{"OBJECT_NAME":"COSMOS 1844","OBJECT_ID":"1987-041A","EPOCH":"2026-04-14T21:19:53.456160","MEAN_MOTION":14.14564843,"ECCENTRICITY":0.0032342,"INCLINATION":70.9002,"RA_OF_ASC_NODE":317.8248,"ARG_OF_PERICENTER":324.5667,"MEAN_ANOMALY":35.3306,"EPHEMERIS_TYPE":0,"CLASSIFICATION_TYPE":"U","NORAD_CAT_ID":17973,"ELEMENT_SET_NO":999,"REV_AT_EPOCH":870,"BSTAR":-2.8386e-5,"MEAN_MOTION_DOT":-1.03e-6,"MEAN_MOTION_DDOT":0},{"OBJECT_NAME":"SL-14 R/B","OBJECT_ID":"1987-055B","EPOCH":"2026-04-14T20:18:22.258080","MEAN_MOTION":14.85662695,"ECCENTRICITY":0.0019168,"INCLINATION":82.4977,"RA_OF_ASC_NODE":314.9532,"ARG_OF_PERICENTER":252.9372,"MEAN_ANOMALY":106.9744,"EPHEMERIS_TYPE":0,"CLASSIFICATION_TYPE":"U","NORAD_CAT_ID":18153,"ELEMENT_SET_NO":999,"REV_AT_EPOCH":7530,"BSTAR":2.492e-5,"MEAN_MOTION_DOT":2.41e-6,"MEAN_MOTION_DDOT":0},{"OBJECT_NAME":"COSMOS 1867","OBJECT_ID":"1987-060A","EPOCH":"2026-04-14T15:06:27.153216","MEAN_MOTION":14.31508633,"ECCENTRICITY":0.0015172,"INCLINATION":65.011,"RA_OF_ASC_NODE":206.053,"ARG_OF_PERICENTER":280.5542,"MEAN_ANOMALY":79.3833,"EPHEMERIS_TYPE":0,"CLASSIFICATION_TYPE":"U","NORAD_CAT_ID":18187,"ELEMENT_SET_NO":999,"REV_AT_EPOCH":2508,"BSTAR":1.6208e-5,"MEAN_MOTION_DOT":-5.7e-7,"MEAN_MOTION_DDOT":0},{"OBJECT_NAME":"SL-14 R/B","OBJECT_ID":"1988-001B","EPOCH":"2026-04-14T17:01:18.151968","MEAN_MOTION":14.85564618,"ECCENTRICITY":0.0019496,"INCLINATION":82.5141,"RA_OF_ASC_NODE":161.4921,"ARG_OF_PERICENTER":117.2866,"MEAN_ANOMALY":243.0338,"EPHEMERIS_TYPE":0,"CLASSIFICATION_TYPE":"U","NORAD_CAT_ID":18749,"ELEMENT_SET_NO":999,"REV_AT_EPOCH":4737,"BSTAR":2.4338e-5,"MEAN_MOTION_DOT":2.36e-6,"MEAN_MOTION_DDOT":0},{"OBJECT_NAME":"COSMOS 1933","OBJECT_ID":"1988-020A","EPOCH":"2026-04-14T15:29:55.854240","MEAN_MOTION":15.1832846,"ECCENTRICITY":0.0005432,"INCLINATION":82.5149,"RA_OF_ASC_NODE":215.3303,"ARG_OF_PERICENTER":81.6745,"MEAN_ANOMALY":278.5105,"EPHEMERIS_TYPE":0,"CLASSIFICATION_TYPE":"U","NORAD_CAT_ID":18958,"ELEMENT_SET_NO":999,"REV_AT_EPOCH":5568,"BSTAR":0.00012841,"MEAN_MOTION_DOT":2.666e-5,"MEAN_MOTION_DDOT":0},{"OBJECT_NAME":"SL-3 R/B","OBJECT_ID":"1988-032B","EPOCH":"2026-04-14T20:54:46.478592","MEAN_MOTION":15.20305274,"ECCENTRICITY":0.0027601,"INCLINATION":97.5226,"RA_OF_ASC_NODE":88.0163,"ARG_OF_PERICENTER":106.7687,"MEAN_ANOMALY":253.658,"EPHEMERIS_TYPE":0,"CLASSIFICATION_TYPE":"U","NORAD_CAT_ID":19046,"ELEMENT_SET_NO":999,"REV_AT_EPOCH":5760,"BSTAR":0.00012935,"MEAN_MOTION_DOT":2.767e-5,"MEAN_MOTION_DDOT":0},{"OBJECT_NAME":"SL-16 R/B","OBJECT_ID":"1988-039B","EPOCH":"2026-04-14T20:17:51.273312","MEAN_MOTION":14.19622647,"ECCENTRICITY":0.002402,"INCLINATION":71.0169,"RA_OF_ASC_NODE":352.0977,"ARG_OF_PERICENTER":283.0866,"MEAN_ANOMALY":76.7578,"EPHEMERIS_TYPE":0,"CLASSIFICATION_TYPE":"U","NORAD_CAT_ID":19120,"ELEMENT_SET_NO":999,"REV_AT_EPOCH":96351,"BSTAR":3.661e-5,"MEAN_MOTION_DOT":2.9e-7,"MEAN_MOTION_DDOT":0},{"OBJECT_NAME":"COSMOS 1953","OBJECT_ID":"1988-050A","EPOCH":"2026-04-14T18:07:33.484224","MEAN_MOTION":15.29082029,"ECCENTRICITY":0.0010739,"INCLINATION":82.505,"RA_OF_ASC_NODE":121.9527,"ARG_OF_PERICENTER":7.8952,"MEAN_ANOMALY":352.2455,"EPHEMERIS_TYPE":0,"CLASSIFICATION_TYPE":"U","NORAD_CAT_ID":19210,"ELEMENT_SET_NO":999,"REV_AT_EPOCH":4329,"BSTAR":0.00013507,"MEAN_MOTION_DOT":3.852e-5,"MEAN_MOTION_DDOT":0}]
